     3.04           N: GNSS NAV DATA    M: Mixed            RINEX VERSION / TYPE
CONVBIN 2.4.3                           20260108 060206 UTC PGM / RUN BY / DATE 
format: u-blox UBX                                          COMMENT             
log: D:\GPdata\1_8\A_1_8_1.ubx                              COMMENT             
                                                            END OF HEADER       
J07 2026 01 08 07 00 00  .288709998131D-07  .000000000000D+00  .000000000000D+00
      .185000000000D+03 -.399250000000D+03  .000000000000D+00  .857310719164D+00
     -.132881104946D-04  .163747579791D-03  .394508242607D-05  .649347578621D+04
      .370800000000D+06 -.143796205521D-05  .270115777669D+00 -.223517417908D-06
      .125267627042D-02 -.125250000000D+03  .299637510591D+01  .907180644858D-09
      .000000000000D+00  .200000000000D+01  .240000000000D+04  .100000000000D+01
      .280000000000D+01  .100000000000D+01 -.465661287308D-08  .953000000000D+03
      .367206000000D+06  .100000000000D+01
J02 2026 01 08 07 00 00 -.704079866409D-06 -.113686837722D-12  .000000000000D+00
      .185000000000D+03  .153687500000D+03  .320513350668D-08 -.279289276857D+01
      .458583235741D-05  .751355474349D-01 -.495463609695D-05  .649334572411D+04
      .370800000000D+06  .398606061935D-06  .247826327277D+01  .335276126862D-06
      .692147797591D+00  .300875000000D+03 -.157712715306D+01 -.327906515765D-08
     -.803604901941D-10  .200000000000D+01  .240000000000D+04  .100000000000D+01
      .280000000000D+01  .100000000000D+01  .139698386192D-08  .953000000000D+03
      .367206000000D+06  .100000000000D+01
G26 2026 01 08 08 00 00 -.307888258249D-03 -.613908923697D-11  .000000000000D+00
      .800000000000D+01  .446562500000D+02  .529664919813D-08 -.294445358609D+01
      .226683914661D-05  .109529475449D-01  .782310962677D-05  .515368948936D+04
      .374400000000D+06  .186264514923D-08  .187192516899D+01 -.173225998878D-06
      .927970285596D+00  .211031250000D+03  .698211018103D+00 -.830356016232D-08
      .275011455331D-09  .100000000000D+01  .240000000000D+04  .000000000000D+00
      .200000000000D+01  .000000000000D+00  .651925802231D-08  .800000000000D+01
      .367206000000D+06  .400000000000D+01
G31 2026 01 08 07 59 28 -.173770356923D-03  .204636307899D-11  .000000000000D+00
      .700000000000D+01 -.351875000000D+02  .447840082908D-08 -.241193478064D+01
     -.184215605259D-05  .108860519249D-01  .109076499939D-04  .515376495361D+04
      .374368000000D+06  .117346644402D-06  .944817968489D+00 -.800937414169D-07
      .954534620633D+00  .163968750000D+03  .928198530074D+00 -.782604027170D-08
      .671456540289D-10  .100000000000D+01  .240000000000D+04  .000000000000D+00
      .200000000000D+01  .000000000000D+00 -.135041773319D-07  .700000000000D+01
      .367206000000D+06  .400000000000D+01
R24 2026 01 08 06 15 00 -.141749158502D-03 -.181898940355D-11  .367200000000D+06
     -.150467080078D+05  .102725124359D+01 -.186264514923D-08  .000000000000D+00
      .140188579102D+05 -.179610157013D+01  .931322574615D-09  .200000000000D+01
      .151221455078D+05  .268927764893D+01 -.186264514923D-08  .000000000000D+00
R14 2026 01 08 06 15 00  .309925526381D-04  .000000000000D+00  .367200000000D+06
     -.114845766602D+05 -.274125671387D+01 -.931322574615D-09  .000000000000D+00
      .106686069336D+05  .265175819397D+00  .000000000000D+00 -.700000000000D+01
      .201202465820D+05 -.170761680603D+01 -.186264514923D-08  .000000000000D+00
R17 2026 01 08 06 15 00  .259887427092D-03  .272848410532D-11  .367200000000D+06
     -.106121547852D+05  .433921813965D-01 -.279396772385D-08  .000000000000D+00
      .231181088867D+05  .355667114258D+00  .186264514923D-08  .400000000000D+01
     -.216129248047D+04  .356781959534D+01 -.931322574615D-09  .000000000000D+00
R15 2026 01 08 06 15 00  .603860244155D-04  .000000000000D+00  .367200000000D+06
      .766940673828D+04 -.301879692078D+01  .000000000000D+00  .000000000000D+00
      .101936718750D+05  .148164749146D+00 -.931322574615D-09  .000000000000D+00
      .221013872070D+05  .978744506836D+00 -.279396772385D-08  .000000000000D+00
R05 2026 01 08 06 15 00  .161712057889D-03  .909494701773D-12  .367200000000D+06
      .162925244141D+05  .104481792450D+01  .000000000000D+00  .000000000000D+00
      .154347700195D+05  .130207061768D+01 -.931322574615D-09  .100000000000D+01
      .121127651367D+05 -.307014083862D+01 -.186264514923D-08  .000000000000D+00
R04 2026 01 08 06 15 00  .330934301019D-03  .181898940355D-11  .367200000000D+06
      .117501865234D+05 -.145794868469D+00 -.186264514923D-08  .000000000000D+00
      .221912324219D+05 -.627831459045D+00  .000000000000D+00  .600000000000D+01
     -.439767138672D+04 -.353306865692D+01  .000000000000D+00  .000000000000D+00
R13 2026 01 08 06 15 00 -.657895579934D-04  .000000000000D+00  .367200000000D+06
     -.247260922852D+05 -.637134552002D+00 -.931322574615D-09  .000000000000D+00
      .412055419922D+04  .190352439880D+00  .186264514923D-08 -.200000000000D+01
      .472319042969D+04 -.348531150818D+01 -.931322574615D-09  .000000000000D+00
R23 2026 01 08 06 15 00 -.175671651959D-03  .000000000000D+00  .367200000000D+06
     -.841464404297D+04  .149062728882D+01  .000000000000D+00  .000000000000D+00
     -.660465429688D+04 -.280282211304D+01  .000000000000D+00  .300000000000D+01
      .231537470703D+05 -.257228851318D+00 -.186264514923D-08  .000000000000D+00
